     2.10           N: GPS NAV DATA                         RINEX VERSION / TYPE
CONVBIN 2.4.3                           20180601 184416 UTC PGM / RUN BY / DATE 
log: /var/lib/jenkins/workspace/AutoDataCollect_NVS/nvsData/COMMENT             
format: NVS BINR                                            COMMENT             
                                                            END OF HEADER       
17 18  6  1 17 59 44.0 -.923867374659E-04  .375166564481E-11  .000000000000E+00
     .130000000000E+02 -.772500000000E+02  .416017307409E-08  .194535703394E+01
    -.430643558502E-05  .123508198885E-01  .272504985332E-05  .515356651497E+04
     .496784000000E+06  .540167093277E-07  .253086892768E+01 -.303611159325E-06
     .982804479694E+00  .337781250000E+03 -.177852263922E+01 -.793354474970E-08
    -.244653047924E-09  .100000000000E+01  .200300000000E+04  .000000000000E+00
     .200000000000E+01  .000000000000E+00 -.111758708954E-07  .130000000000E+02
     .495876980000E+06  .000000000000E+00
18 18  6  1 18  0  0.0  .163870863616E-04  .466116034659E-11  .000000000000E+00
     .640000000000E+02 -.778750000000E+02  .465697966301E-08 -.395217887234E+00
    -.402890145779E-05  .145706785843E-01  .901706516743E-05  .515365802956E+04
     .496800000000E+06 -.134110450745E-06 -.279767924634E+01  .126659870148E-06
     .950040804007E+00  .199437500000E+03  .130772912396E+01 -.830320300459E-08
    -.157149403046E-10  .100000000000E+01  .200300000000E+04  .000000000000E+00
     .200000000000E+01  .000000000000E+00 -.698491930962E-08  .640000000000E+02
     .495882000000E+06  .000000000000E+00
28 18  6  1 18  0  0.0  .720149815083E-03  .318323145621E-11  .000000000000E+00
     .150000000000E+02  .940000000000E+02  .406588348059E-08  .294085436728E+01
     .478513538837E-05  .194809059612E-01  .329501926899E-05  .515368242264E+04
     .496800000000E+06  .352039933205E-06  .151948386513E+01 -.409781932831E-07
     .985638393395E+00  .326312500000E+03 -.151924953784E+01 -.767531970787E-08
     .176793078427E-09  .100000000000E+01  .200300000000E+04  .000000000000E+00
     .200000000000E+01  .000000000000E+00 -.111758708954E-07  .150000000000E+02
     .495887000000E+06  .000000000000E+00
 7 18  6  1 18  0  0.0  .182310119271E-03 -.625277607469E-11  .000000000000E+00
     .101000000000E+03  .539062500000E+02  .434410970737E-08 -.807896278134E+00
     .298395752907E-05  .116641551722E-01  .944547355175E-05  .515366616440E+04
     .496800000000E+06  .221654772758E-06  .403630153342E+00  .182539224625E-06
     .958958955964E+00  .195031250000E+03 -.252829723620E+01 -.790997233924E-08
    -.149649090628E-09  .100000000000E+01  .200300000000E+04  .000000000000E+00
     .200000000000E+01  .000000000000E+00 -.111758708954E-07  .101000000000E+03
     .496027000000E+06  .000000000000E+00
 1 18  6  1 18  0  0.0 -.525647774339E-04 -.318323145621E-11  .000000000000E+00
     .106000000000E+03 -.776562500000E+02  .409945645138E-08 -.123494185583E+00
    -.411085784435E-05  .782335363328E-02  .901520252228E-05  .515367476654E+04
     .496800000000E+06  .204890966415E-07 -.275044742350E+01  .800937414169E-07
     .971656398783E+00  .208062500000E+03  .632263535674E+00 -.788711424425E-08
    -.610739725475E-10  .100000000000E+01  .200300000000E+04  .000000000000E+00
     .200000000000E+01  .000000000000E+00  .558793544769E-08  .106000000000E+03
     .496097000000E+06  .000000000000E+00
11 18  6  1 18  0  0.0 -.734985828400E-03  .102318153949E-11  .000000000000E+00
     .830000000000E+02 -.974375000000E+02  .582345673419E-08 -.810730305943E+00
    -.501982867718E-05  .168502848828E-01  .673346221447E-05  .515363918304E+04
     .496800000000E+06 -.255182385445E-06  .310566707943E+01 -.279396772385E-07
     .905758210842E+00  .219562500000E+03  .176458654074E+01 -.900073205948E-08
    -.114647632677E-09  .100000000000E+01  .200300000000E+04  .000000000000E+00
     .200000000000E+01  .000000000000E+00 -.121071934700E-07  .830000000000E+02
     .496187000000E+06  .000000000000E+00
30 18  6  1 18  0  0.0  .674934089184E-04 -.432009983342E-11  .000000000000E+00
     .390000000000E+02  .592500000000E+02  .463126455588E-08 -.722699719618E+00
     .301562249660E-05  .343733886257E-02  .960193574429E-05  .515373628044E+04
     .496800000000E+06  .614672899246E-07  .437123330684E+00 -.242143869400E-07
     .944547391550E+00  .182406250000E+03 -.307286241132E+01 -.798390399022E-08
    -.116790579082E-09  .100000000000E+01  .200300000000E+04  .000000000000E+00
     .200000000000E+01  .000000000000E+00  .372529029846E-08  .390000000000E+02
     .496792000000E+06  .000000000000E+00
13 18  6  1 20  0  0.0 -.939173623919E-04  .341060513165E-12  .000000000000E+00
     .740000000000E+02 -.893750000000E+01  .441911264526E-08  .173763859933E+01
    -.448897480965E-06  .336492189672E-02  .665709376335E-05  .515365491486E+04
     .504000000000E+06  .521540641785E-07 -.541935904640E+00 -.651925802231E-07
     .968466314269E+00  .255187500000E+03  .157135800541E+01 -.790175771135E-08
    -.306441335940E-09  .100000000000E+01  .200300000000E+04  .000000000000E+00
     .200000000000E+01  .000000000000E+00 -.111758708954E-07  .740000000000E+02
     .496822000000E+06  .000000000000E+00
17 18  6  1 20  0  0.0 -.923597216606E-04  .375166564481E-11  .000000000000E+00
     .140000000000E+02 -.705000000000E+02  .422053277743E-08  .299789150388E+01
    -.354461371899E-05  .123500342015E-01  .259093940258E-05  .515356828690E+04
     .504000000000E+06  .217929482460E-06  .253081193240E+01 -.199303030968E-06
     .982802848541E+00  .337968750000E+03 -.177847965576E+01 -.790068623815E-08
    -.209294432239E-09  .100000000000E+01  .200300000000E+04  .000000000000E+00
     .200000000000E+01  .000000000000E+00 -.111758708954E-07  .140000000000E+02
     .496827000000E+06  .000000000000E+00
19 18  6  1 20  0  0.0 -.431794673204E-03  .295585778076E-11  .000000000000E+00
     .101000000000E+03 -.696250000000E+02  .434303808194E-08 -.336929396839E+00
    -.352412462234E-05  .990532524884E-02  .339373946190E-05  .515371476364E+04
     .504000000000E+06 -.745058059692E-07  .257779186269E+01  .484287738800E-07
     .980357578045E+00  .325750000000E+03  .119321546477E+01 -.826248702289E-08
    -.181078971237E-09  .100000000000E+01  .200300000000E+04  .000000000000E+00
     .200000000000E+01  .000000000000E+00 -.153668224812E-07  .101000000000E+03
     .496832000000E+06  .000000000000E+00
 8 18  6  1 20  0  0.0 -.103290192783E-03 -.136424205266E-11  .000000000000E+00
     .490000000000E+02 -.561250000000E+02  .462340669222E-08 -.288628908093E+01
    -.284053385258E-05  .346550834365E-02  .230595469475E-05  .515357441521E+04
     .504000000000E+06 -.540167093277E-07  .246822172407E+01  .838190317154E-07
     .969288202127E+00  .340406250000E+03 -.424693117647E+00 -.820605610089E-08
    -.105361531588E-09  .100000000000E+01  .200300000000E+04  .000000000000E+00
     .200000000000E+01  .000000000000E+00  .512227416039E-08  .490000000000E+02
     .496837000000E+06  .000000000000E+00
30 18  6  1 20  0  0.0  .674617439508E-04 -.432009983342E-11  .000000000000E+00
     .400000000000E+02  .538750000000E+02  .457376194210E-08  .327560253571E+00
     .284239649773E-05  .343776098453E-02  .967830419540E-05  .515373721886E+04
     .504000000000E+06  .819563865662E-07  .437065801431E+00  .726431608200E-07
     .944546377748E+00  .184593750000E+03 -.307297987632E+01 -.800069040373E-08
    -.141434462742E-09  .100000000000E+01  .200300000000E+04  .000000000000E+00
     .200000000000E+01  .000000000000E+00  .372529029846E-08  .400000000000E+02
     .496842000000E+06  .000000000000E+00
18 18  6  1 20  0  0.0  .164206139743E-04  .466116034659E-11  .000000000000E+00
     .680000000000E+02 -.863125000000E+02  .473555439653E-08  .654942867925E+00
    -.440329313278E-05  .145701509900E-01  .925175845623E-05  .515365714645E+04
     .504000000000E+06 -.188127160072E-06 -.279773857060E+01  .223517417908E-07
     .950040414871E+00  .200656250000E+03  .130776083856E+01 -.828713090655E-08
    -.971469037013E-10  .100000000000E+01  .200300000000E+04  .000000000000E+00
     .200000000000E+01  .000000000000E+00 -.698491930962E-08  .680000000000E+02
     .496847000000E+06  .000000000000E+00
11 18  6  1 20  0  0.0 -.734978377819E-03  .102318153949E-11  .000000000000E+00
     .840000000000E+02 -.101531250000E+03  .597060595409E-08  .239445148617E+00
    -.525079667568E-05  .168485143222E-01  .640004873276E-05  .515363554955E+04
     .504000000000E+06 -.169500708580E-06  .310560239212E+01 -.135973095894E-06
     .905757314073E+00  .232156250000E+03  .176462405289E+01 -.902859036274E-08
    -.168578450541E-09  .100000000000E+01  .200300000000E+04  .000000000000E+00
     .200000000000E+01  .000000000000E+00 -.121071934700E-07  .840000000000E+02
     .496852000000E+06  .000000000000E+00
28 18  6  1 20  0  0.0  .720172166824E-03  .318323145621E-11  .000000000000E+00
     .160000000000E+02  .859062500000E+02  .392302076241E-08 -.229213293007E+01
     .466778874397E-05  .194795462303E-01  .352971255779E-05  .515368507195E+04
     .504000000000E+06  .199303030968E-06  .151942784853E+01  .193715095520E-06
     .985640668233E+00  .318937500000E+03 -.151927585427E+01 -.762888920243E-08
     .363229415677E-09  .100000000000E+01  .200300000000E+04  .000000000000E+00
     .200000000000E+01  .000000000000E+00 -.111758708954E-07  .160000000000E+02
     .496857000000E+06  .000000000000E+00
 7 18  6  1 20  0  0.0  .182265415788E-03 -.625277607469E-11  .000000000000E+00
     .103000000000E+03  .475937500000E+02  .435375260149E-08  .242283275522E+00
     .261329114437E-05  .116632363060E-01  .980682671070E-05  .515366444969E+04
     .504000000000E+06  .353902578354E-07  .403572909357E+00  .270083546638E-06
     .958957557414E+00  .191750000000E+03 -.252829223887E+01 -.795997442203E-08
    -.186436337250E-09  .100000000000E+01  .200300000000E+04  .000000000000E+00
     .200000000000E+01  .000000000000E+00 -.111758708954E-07  .103000000000E+03
     .496912000000E+06  .000000000000E+00
 1 18  6  1 20  0  0.0 -.525875948370E-04 -.318323145621E-11  .000000000000E+00
     .107000000000E+03 -.837187500000E+02  .420446099811E-08  .926726155693E+00
    -.410899519920E-05  .782249099575E-02  .905431807041E-05  .515367301559E+04
     .504000000000E+06 -.167638063431E-07 -.275050399454E+01  .912696123123E-07
     .971655920409E+00  .210843750000E+03  .632221302692E+00 -.786747056887E-08
    -.835749098019E-10  .100000000000E+01  .200300000000E+04  .000000000000E+00
     .200000000000E+01  .000000000000E+00  .558793544769E-08  .107000000000E+03
     .496967000000E+06  .000000000000E+00
22 18  6  1 20  0  0.0 -.411706984043E-03 -.127329258248E-10  .000000000000E+00
     .150000000000E+02  .509375000000E+01  .537236661408E-08  .242055366930E+01
     .223517417908E-06  .738308648579E-02  .743381679058E-05  .515379729080E+04
     .504000000000E+06  .113621354103E-06 -.176763278237E+01 -.502914190292E-07
     .924769232122E+00  .212437500000E+03 -.153467814192E+01 -.819569852660E-08
     .297155234851E-09  .100000000000E+01  .200300000000E+04  .000000000000E+00
     .200000000000E+01  .000000000000E+00 -.176951289177E-07  .150000000000E+02
     .498757000000E+06  .000000000000E+00
